SL-8 R/B                
1 19257U 88053B   24241.55695307  .00000931  00000+0  31402-3 0  9996
2 19257  74.0465  60.8168 0019855  17.7989  38.1142 14.38292873896616
COSMOS 1975             
1 19573U 88093A   24241.27082873  .00014117  00000+0  73401-3 0  9994
2 19573  82.5276 313.2454 0013368 332.5303  27.5221 15.15879302934432
SL-14 R/B               
1 19574U 88093B   24241.44268007  .00001478  00000+0  17136-3 0  9998
2 19574  82.5319 205.6952 0022793  84.9202  35.7627 14.84622355918179
SL-16 R/B               
1 19650U 88102B   24241.37110286 -.00000085  00000+0 -18686-4 0  9998
2 19650  70.9968 246.1372 0012859 149.0845 211.1038 14.15998595847857
INTERCOSMOS 24          
1 20261U 89080A   24241.37067614  .00001895  00000+0  55576-3 0  9996
2 20261  82.6033 107.3194 1194151 147.1820 220.9557 12.58198824596542
SL-14 R/B               
1 20262U 89080C   24241.54193772  .00001633  00000+0  48839-3 0  9995
2 20262  82.5969 171.5084 1233985  20.1810 344.3927 12.49815871590408
DELTA 1 R/B             
1 20323U 89089B   24241.54191827  .00001527  00000+0  39294-3 0  9998
2 20323  97.1151 165.0247 0071871  84.2969 276.6418 14.49687544814833
ARIANE 40 R/B           
1 20443U 90005H   24241.40894427  .00000943  00000+0  31869-3 0  9993
2 20443  98.3880 305.3937 0011456  84.3977 275.8517 14.39093388812482
DELTA 2 R/B(1)          
1 20453U 90008B   24241.32611023  .00024306  00000+0  85241-3 0  9999
2 20453  35.6178 110.5126 0194820 293.2643  64.7679 15.12411807840444
COSMOS 2058             
1 20465U 90010A   24241.56188017  .00009401  00000+0  66856-3 0  9993
2 20465  82.4841 234.0087 0015259  66.2676 294.0149 15.04454081858108
SL-14 R/B               
1 20466U 90010B   24241.28765659  .00001120  00000+0  13593-3 0  9996
2 20466  82.4994  71.4988 0019697 343.8079  16.2504 14.82593682845710
SL-14 R/B               
1 20511U 90018B   24241.38061755  .00001426  00000+0  17984-3 0  9999
2 20511  82.5227  24.6306 0017748 125.5386 234.7486 14.81208110839904
HST                     
1 20580U 90037B   24241.22925704  .00010938  00000+0  49953-3 0  9991
2 20580  28.4671 222.0619 0002504 112.3440 247.7419 15.18959306687993
SL-16 R/B               
1 20625U 90046B   24241.56256852 -.00000065  00000+0 -91509-5 0  9997
2 20625  71.0007  29.9574 0011995  68.6421 291.5980 14.14864440769440
COSMOS 2084             
1 20663U 90055A   24241.27264310  .00009615  00000+0  70861-3 0  9999
2 20663  62.7914  73.1381 0103830 127.1463 233.9175 14.99604359852375
SL-6 R/B(2)             
1 20666U 90055D   24241.41748453  .00007827  00000+0  62255-3 0  9994
2 20666  62.7866 346.7268 0075025 150.8285 209.7035 14.98934599854353
SL-8 R/B                
1 20775U 90078B   24241.43119992  .00023904  00000+0  90896-3 0  9998
2 20775  82.9148  24.0610 0458317  59.5112 305.0520 14.63881224726884
SL-8 R/B                
1 21088U 91006B   24241.40171505  .00000062  00000+0  47059-4 0  9997
2 21088  82.9403 225.3211 0023102 155.4864 313.4949 13.77359655687212
OKEAN-3                 
1 21397U 91039A   24241.48068748  .00008215  00000+0  67219-3 0  9995
2 21397  82.5212 155.6192 0018033  68.7781 291.5367 14.99081083781221
COSMOS 2151             
1 21422U 91042A   24241.53926485  .00004578  00000+0  40157-3 0  9995
2 21422  82.4953 260.6341 0014588 138.0640 222.1702 14.96349139779608
SL-14 R/B               
1 21423U 91042B   24241.38959623  .00001298  00000+0  16473-3 0  9999
2 21423  82.4945  23.4385 0015822 275.6026  84.3383 14.80927218770417
ERS-1                   
1 21574U 91050A   24241.54494365  .00001019  00000+0  34515-3 0  9998
2 21574  98.7829 234.8920 0033493  58.4713 301.9738 14.38667638735437
ARIANE 40 R/B           
1 21610U 91050F   24241.45882525  .00001030  00000+0  32685-3 0  9997
2 21610  98.2838 301.2863 0002506 348.2461  11.8670 14.42027981738519
INTERCOSMOS 25          
1 21819U 91086A   24241.55032668  .00003140  00000+0  63097-3 0  9998
2 21819  82.6060 286.8036 1498111 237.8431 106.8688 12.09128593429148
SL-8 R/B                
1 21876U 92008B   24241.51630177  .00000163  00000+0  15250-3 0  9991
2 21876  82.9298 322.8435 0033450 252.7534 118.7223 13.75844885632664
SL-8 R/B                
1 21938U 92020B   24241.63943931  .00000095  00000+0  82100-4 0  9995
2 21938  82.9306 208.1939 0030479  57.0498 115.9737 13.75430103624418
USA 81                  
1 21949U 92023A   24241.57529105  .00000475  00000+0  16970-3 0  9999
2 21949  85.0037  93.3990 0002304  68.0938 292.0499 14.31965930 14906
COSMOS 2219             
1 22219U 92076A   24241.36782789  .00000413  00000+0  24216-3 0  9998
2 22219  71.0601 105.0832 0019227 328.3460  31.6504 14.13904219639459
SL-16 R/B               
1 22220U 92076B   24241.58966748  .00000132  00000+0  89988-4 0  9999
2 22220  70.9992 283.8788 0014588 232.5996 239.5989 14.16691933642787
COSMOS 2221             
1 22236U 92080A   24241.55465887  .00004690  00000+0  45591-3 0  9990
2 22236  82.5035  92.2382 0013833 264.1466  95.8177 14.92323989697428
SL-16 R/B               
1 22285U 92093B   24241.34980591  .00000422  00000+0  24135-3 0  9999
2 22285  71.0206  96.2531 0002306  68.1649 291.9719 14.15287258634158
COSMOS 2228             
1 22286U 92094A   24241.53718513  .00006201  00000+0  59418-3 0  9998
2 22286  82.5174  50.1834 0019906  21.9788 338.2281 14.92860299692644
SL-16 R/B               
1 22566U 93016B   24241.54838600 -.00000105  00000+0 -29662-4 0  9993
2 22566  71.0087 307.3346 0007868  92.6884 267.5139 14.15163077623209
COSMOS 2242             
1 22626U 93024A   24241.52163352  .00005005  00000+0  48389-3 0  9990
2 22626  82.5177  79.0947 0018134  24.4613 335.7464 14.92494765697008
SL-16 R/B               
1 22803U 93059B   24241.36477472  .00000089  00000+0  67916-4 0  9993
2 22803  70.9898 108.4001 0018129 334.3441  25.6782 14.17062061600436
ARIANE 40 R/B           
1 22830U 93061H   24241.16907097  .00000721  00000+0  28333-3 0  9997
2 22830  98.5659 307.9337 0011750 132.1882 228.0301 14.32228899614139
COSMOS 2278             
1 23087U 94023A   24241.40868601  .00000012  00000+0  30854-4 0  9990
2 23087  71.0504 262.9527 0008449 176.4884 183.6299 14.14131361565879
SL-16 R/B               
1 23088U 94023B   24241.51074408  .00000012  00000+0  31060-4 0  9997
2 23088  71.0010 163.0122 0001627  20.0590 340.0596 14.14877557567137
SL-16 R/B               
1 23343U 94074B   24241.57235539  .00001421  00000+0  20249-3 0  9998
2 23343  97.7820 282.1409 0005576 228.0649 259.4196 14.78277657604752
SL-16 R/B               
1 23405U 94077B   24241.56799501 -.00000100  00000+0 -26460-4 0  9990
2 23405  70.9815  86.5630 0004853 282.5612  77.4968 14.15416696537256
ARIANE 40+ R/B          
1 23561U 95021B   24241.43294166  .00000880  00000+0  29926-3 0  9998
2 23561  98.5221 307.4411 0007080  22.9677 348.0793 14.38997130538931
SL-16 R/B               
1 23705U 95058B   24241.54830218  .00000364  00000+0  21107-3 0  9994
2 23705  71.0196 271.9656 0014687 253.6737 106.2771 14.15365402488878
SL-16 R/B               
1 24298U 96051B   24241.53085936 -.00000150  00000+0 -54559-4 0  9997
2 24298  70.7940 275.9409 0017461 243.6660 116.2667 14.12457692442837
ORBVIEW 2 (SEASTAR)     
1 24883U 97037A   24241.47201196  .00001103  00000+0  40602-3 0  9993
2 24883  98.7854  22.5206 0001208 258.1553 101.9496 14.34681516428402
SL-16 R/B               
1 25400U 98043G   24241.54330474  .00000290  00000+0  14081-3 0  9995
2 25400  98.7475 182.4458 0009602 187.8940 172.2090 14.25795678359449
SL-16 R/B               
1 25407U 98045B   24241.54775958  .00000221  00000+0  13613-3 0  9998
2 25407  71.0098 275.2189 0006801 174.4169 185.7031 14.16033524348083
ISS (ZARYA)             
1 25544U 98067A   24241.69612113  .00086741  00000+0  15570-2 0  9997
2 25544  51.6393 316.1049 0011308 292.5176 203.1581 15.49086953469793
CZ-4B R/B               
1 25732U 99025C   24241.36934392  .00000309  00000+0  17089-3 0  9995
2 25732  98.7459 285.4524 0037881 147.4688 223.4669 14.18013539309030
OKEAN-O                 
1 25860U 99039A   24241.42441940  .00001770  00000+0  24817-3 0  9991
2 25860  98.0298 293.6606 0001329  69.7707 290.3646 14.78737407351830
SL-16 R/B               
1 25861U 99039B   24241.15507198  .00001463  00000+0  19883-3 0  9996
2 25861  98.0828 287.6435 0013770 266.0828  93.8809 14.80329289354188
DELTA 2 R/B             
1 25876U 99041E   24241.62071927  .00006727  00000+0  11358-2 0  9999
2 25876  51.7636   5.8532 0515412 144.5748 219.0590 14.08845784284269
HELIOS 1B               
1 25977U 99064A   24241.56152121  .00002840  00000+0  34196-3 0  9993
2 25977  98.2335 115.6091 0002667  84.2418 275.9099 14.84720343602356
TERRA                   
1 25994U 99068A   24241.54747641  .00001500  00000+0  32206-3 0  9993
2 25994  98.0423 302.8960 0003123 120.8713  10.0557 14.59989850313605
SL-16 R/B               
1 26070U 00006B   24241.27778368  .00000176  00000+0  11417-3 0  9992
2 26070  71.0015 191.8687 0018353 307.0216  52.9227 14.15664609269523
TITAN 4B R/B            
1 26474U 00047B   24241.49561271  .00009645  00000+0  70335-3 0  9996
2 26474  67.9924 163.2691 0051315 303.2742  56.3492 15.02998823308823
ENVISAT                 
1 27386U 02009A   24241.43682381  .00000462  00000+0  16464-3 0  9990
2 27386  98.2890 200.0388 0001251  86.1950  23.2782 14.38648713178895
IDEFIX & ARIANE 42P R/B 
1 27422U 02021B   24241.56039581  .00001058  00000+0  42453-3 0  9996
2 27422  98.5288 177.8086 0012811  35.8667 324.3373 14.30252980164217
AQUA                    
1 27424U 02022A   24241.64335826  .00003478  00000+0  73883-3 0  9998
2 27424  98.3343 191.3182 0000912  98.8903  25.4949 14.59728642187248
CZ-4B R/B               
1 27432U 02024C   24241.38087799  .00000182  00000+0  11702-3 0  9994
2 27432  98.9699 284.0330 0050600 165.4919 205.5489 14.14355668150312
